NORAD_CAT_ID,OBJECT_NAME,OBJECT_TYPE,EPOCH,MEAN_MOTION,ECCENTRICITY,INCLINATION,RA_OF_ASC_NODE,ARG_OF_PERICENTER,MEAN_ANOMALY,BSTAR,MEAN_MOTION_DOT,MEAN_MOTION_DDOT,TLE_LINE0,TLE_LINE1,TLE_LINE2,SEMIMAJOR_AXIS,PERIOD,APOGEE,PERIGEE,DECAYED
53891.0,STARLINK-5041,PAYLOAD,2023-09-12 19:26:49,15.08840889,0.0001382,53.2179,84.3109,88.6188,271.4963,4.5422e-05,4.35e-06,0.0,0 STARLINK-5041,1 53891U 22119F   23255.81029018  .00000435  00000-0  45422-4 0  9990,2 53891  53.2179  84.3109 0001382  88.6188 271.4963 15.08840889 54476,6917.878,95.437,540.699,538.787,0.0
53891.0,STARLINK-5041,PAYLOAD,2023-09-13 12:56:03,15.0884404,0.0001406,53.218,81.0401,86.5479,273.5674,9.0869e-05,1.159e-05,0.0,0 STARLINK-5041,1 53891U 22119F   23256.53892622  .00001159  00000-0  90869-4 0  9998,2 53891  53.2180  81.0401 0001406  86.5479 273.5674 15.08844040 54581,6917.868,95.437,540.706,538.76,0.0
53891.0,STARLINK-5041,PAYLOAD,2023-09-13 17:42:12,15.08847242,0.0001329,53.2188,80.1489,90.4273,269.6871,0.00010615,1.402e-05,0.0,0 STARLINK-5041,1 53891U 22119F   23256.73764311  .00001402  00000-0  10615-3 0  9994,2 53891  53.2188  80.1489 0001329  90.4273 269.6871 15.08847242 54194,6917.858,95.437,540.643,538.804,0.0
53891.0,STARLINK-5041,PAYLOAD,2023-09-13 19:17:35,15.08849314,0.000133,53.2179,79.8507,90.8797,269.2348,0.0001263,1.723e-05,0.0,0 STARLINK-5041,1 53891U 22119F   23256.80388107  .00001723  00000-0  12630-3 0  9992,2 53891  53.2179  79.8507 0001330  90.8797 269.2348 15.08849314 54622,6917.852,95.437,540.637,538.797,0.0
53891.0,STARLINK-5041,PAYLOAD,2023-09-14 11:11:27,15.08835186,0.0001406,53.2185,76.8779,95.8569,264.2583,3.327e-05,2.42e-06,0.0,0 STARLINK-5041,1 53891U 22119F   23257.46629388  .00000242  00000-0  33270-4 0  9993,2 53891  53.2185  76.8779 0001406  95.8569 264.2583 15.08835186 54306,6917.895,95.438,540.733,538.787,0.0
53891.0,STARLINK-5041,PAYLOAD,2023-09-14 12:46:51,15.08834354,0.0001294,53.2178,76.5774,88.9379,271.1761,-2.6292e-05,-7.06e-06,0.0,0 STARLINK-5041,1 53891U 22119F   23257.53253723 -.00000706  00000-0 -26292-4 0  9990,2 53891  53.2178  76.5774 0001294  88.9379 271.1761 15.08834354 54735,6917.898,95.438,540.658,538.867,0.0
53891.0,STARLINK-5041,PAYLOAD,2023-09-14 17:33:01,15.08828658,0.0001282,53.218,75.6862,91.6845,268.4294,-7.3156e-05,-1.452e-05,0.0,0 STARLINK-5041,1 53891U 22119F   23257.73126317 -.00001452  00000-0 -73156-4 0  9990,2 53891  53.2180  75.6862 0001282  91.6845 268.4294 15.08828658 54349,6917.915,95.438,540.667,538.893,0.0
53891.0,STARLINK-5041,PAYLOAD,2023-09-14 19:08:24,15.08828185,0.0001254,53.2178,75.3877,88.4052,271.7084,-7.8663e-05,-1.539e-05,0.0,0 STARLINK-5041,1 53891U 22119F   23257.79750349 -.00001539  00000-0 -78663-4 0  9998,2 53891  53.2178  75.3877 0001254  88.4052 271.7084 15.08828185 54778,6917.917,95.438,540.649,538.914,0.0
53891.0,STARLINK-5041,PAYLOAD,2023-09-15 11:02:15,15.08837728,0.0001107,53.2173,72.4142,78.0572,282.0544,-5.31e-05,-1.133e-05,0.0,0 STARLINK-5041,1 53891U 22119F   23258.45990062 -.00001133  00000-0 -53100-4 0  9999,2 53891  53.2173  72.4142 0001107  78.0572 282.0544 15.08837728 54459,6917.887,95.438,540.518,538.987,0.0
53891.0,STARLINK-5041,PAYLOAD,2023-09-15 12:37:38,15.08841266,0.0001109,53.217,72.1163,78.1892,281.9224,-2.8391e-05,-7.4e-06,0.0,0 STARLINK-5041,1 53891U 22119F   23258.52613747 -.00000740  00000-0 -28391-4 0  9996,2 53891  53.2170  72.1163 0001109  78.1892 281.9224 15.08841266 54886,6917.877,95.437,540.509,538.974,0.0
53891.0,STARLINK-5041,PAYLOAD,2023-09-15 17:23:47,15.08845375,0.0001159,53.2176,71.2245,87.2354,272.8771,2.0889e-05,4.5e-07,0.0,0 STARLINK-5041,1 53891U 22119F   23258.72485326  .00000045  00000-0  20889-4 0  9998,2 53891  53.2176  71.2245 0001159  87.2354 272.8771 15.08845375 54490,6917.864,95.437,540.531,538.927,0.0
53891.0,STARLINK-5041,PAYLOAD,2023-09-16 10:53:02,15.08832229,0.0001204,53.2181,67.9546,78.5104,281.6023,0.00018051,2.586e-05,0.0,0 STARLINK-5041,1 53891U 22119F   23259.45349990  .00002586  00000-0  18051-3 0  9994,2 53891  53.2181  67.9546 0001204  78.5104 281.6023 15.08832229 55021,6917.904,95.438,540.602,538.936,0.0
53891.0,STARLINK-5041,PAYLOAD,2023-09-16 17:14:34,15.08835195,0.0001221,53.2182,66.7652,78.4214,281.6915,0.00020306,2.945e-05,0.0,0 STARLINK-5041,1 53891U 22119F   23259.71846006  .00002945  00000-0  20306-3 0  9998,2 53891  53.2182  66.7652 0001221  78.4214 281.6915 15.08835195 54649,6917.895,95.438,540.605,538.915,0.0
53891.0,STARLINK-5041,PAYLOAD,2023-09-17 10:43:49,15.0884435,0.0001286,53.2178,63.4945,77.1904,282.9232,0.00011849,1.599e-05,0.0,0 STARLINK-5041,1 53891U 22119F   23260.44709758  .00001599  00000-0  11849-3 0  9998,2 53891  53.2178  63.4945 0001286  77.1904 282.9232 15.08844350 55174,6917.867,95.437,540.622,538.842,0.0
53891.0,STARLINK-5041,PAYLOAD,2023-09-17 18:40:44,15.08850965,0.0001204,53.2172,62.0078,75.1373,284.9752,0.00016241,2.299e-05,0.0,0 STARLINK-5041,1 53891U 22119F   23260.77829359  .00002299  00000-0  16241-3 0  9993,2 53891  53.2172  62.0078 0001204  75.1373 284.9752 15.08850965 54805,6917.847,95.437,540.545,538.879,0.0
53891.0,STARLINK-5041,PAYLOAD,2023-09-18 10:34:36,15.08838362,0.0001274,53.217,59.0344,83.218,276.8957,5.1322e-05,5.29e-06,0.0,0 STARLINK-5041,1 53891U 22119F   23261.44069986  .00000529  00000-0  51322-4 0  9994,2 53891  53.2170  59.0344 0001274  83.2180 276.8957 15.08838362 54903,6917.885,95.438,540.632,538.869,0.0
53891.0,STARLINK-5041,PAYLOAD,2023-09-18 16:56:09,15.08837574,0.0001242,53.2176,57.8447,85.3969,274.7165,4.1033e-05,3.65e-06,0.0,0 STARLINK-5041,1 53891U 22119F   23261.70566247  .00000365  00000-0  41033-4 0  9991,2 53891  53.2176  57.8447 0001242  85.3969 274.7165 15.08837574 55365,6917.888,95.438,540.612,538.894,0.0
53891.0,STARLINK-5041,PAYLOAD,2023-09-19 10:25:23,15.08849321,0.000127,53.2185,54.5728,89.8957,270.2181,7.0445e-05,8.34e-06,0.0,0 STARLINK-5041,1 53891U 22119F   23262.43429413  .00000834  00000-0  70445-4 0  9995,2 53891  53.2185  54.5728 0001270  89.8957 270.2181 15.08849321 55056,6917.852,95.437,540.595,538.838,0.0
53891.0,STARLINK-5041,PAYLOAD,2023-09-19 19:57:41,15.08859148,0.0001386,53.2177,52.7879,92.1242,267.9909,0.00040043,6.094e-05,0.0,0 STARLINK-5041,1 53891U 22119F   23262.83173023  .00006094  00000-0  40043-3 0  9996,2 53891  53.2177  52.7879 0001386  92.1242 267.9909 15.08859148 55112,6917.822,95.436,540.646,538.728,0.0
53891.0,STARLINK-5041,PAYLOAD,2023-09-20 10:16:10,15.08828894,0.0001027,53.2177,50.1123,98.0819,262.029,-9.2502e-05,-1.759e-05,0.0,0 STARLINK-5041,1 53891U 22119F   23263.42790385 -.00001759  00000-0 -92502-4 0  9991,2 53891  53.2177  50.1123 0001027  98.0819 262.0290 15.08828894 55206,6917.914,95.438,540.49,539.069,0.0
53891.0,STARLINK-5041,PAYLOAD,2023-09-20 13:26:57,15.08830022,0.0001264,53.2179,49.5172,104.224,255.8893,-0.00012539,-2.282e-05,0.0,0 STARLINK-5041,1 53891U 22119F   23263.56038346 -.00002282  00000-0 -12539-3 0  9991,2 53891  53.2179  49.5172 0001264 104.2240 255.8893 15.08830022 55648,6917.911,95.438,540.65,538.901,0.0
53891.0,STARLINK-5041,PAYLOAD,2023-09-20 16:37:43,15.08830168,0.0001205,53.2179,48.9227,101.327,258.7858,-0.00010325,-1.93e-05,0.0,0 STARLINK-5041,1 53891U 22119F   23263.69286345 -.00001930  00000-0 -10325-3 0  9999,2 53891  53.2179  48.9227 0001205 101.3270 258.7858 15.08830168 55664,6917.91,95.438,540.609,538.942,0.0
53891.0,STARLINK-5041,PAYLOAD,2023-09-21 10:06:58,15.0884143,0.0001203,53.2181,45.6525,105.2225,254.8901,0.0005232,8.049e-05,0.0,0 STARLINK-5041,1 53891U 22119F   23264.42150650  .00008049  00000-0  52320-3 0  9997,2 53891  53.2181  45.6525 0001203 105.2225 254.8901 15.08841430 55359,6917.876,95.437,540.573,538.909,0.0
53891.0,STARLINK-5041,PAYLOAD,2023-09-21 13:17:44,15.08845177,0.0001177,53.218,45.0581,105.1186,254.9936,0.00074614,0.00011608,0.0,0 STARLINK-5041,1 53891U 22119F   23264.55398654  .00011608  00000-0  74614-3 0  9994,2 53891  53.2180  45.0581 0001177 105.1186 254.9936 15.08845177 55798,6917.865,95.437,540.544,538.915,0.0
53891.0,STARLINK-5041,PAYLOAD,2023-09-21 16:28:30,15.08854258,0.0001194,53.2182,44.4639,104.7521,255.3603,0.00098189,0.00015379,0.0,0 STARLINK-5041,1 53891U 22119F   23264.68646484  .00015379  00000-0  98189-3 0  9997,2 53891  53.2182  44.4639 0001194 104.7521 255.3603 15.08854258 55813,6917.837,95.437,540.528,538.876,0.0
53891.0,STARLINK-5041,PAYLOAD,2023-09-22 13:08:31,15.08848597,0.000135,53.219,40.5998,105.2805,254.8337,0.00015746,2.22e-05,0.0,0 STARLINK-5041,1 53891U 22119F   23265.54758119  .00002220  00000-0  15746-3 0  9991,2 53891  53.2190  40.5998 0001350 105.2805 254.8337 15.08848597 55943,6917.854,95.437,540.653,538.785,0.0
53891.0,STARLINK-5041,PAYLOAD,2023-09-22 16:19:17,15.08848818,0.0001388,53.2192,40.0057,107.3357,252.7787,0.00024864,3.672e-05,0.0,0 STARLINK-5041,1 53891U 22119F   23265.68006140  .00003672  00000-0  24864-3 0  9999,2 53891  53.2192  40.0057 0001388 107.3357 252.7787 15.08848818 55540,6917.853,95.437,540.679,538.758,0.0
53891.0,STARLINK-5041,PAYLOAD,2023-09-22 19:30:03,15.08859394,0.0001207,53.2183,39.4086,93.016,267.097,0.00048534,7.449e-05,0.0,0 STARLINK-5041,1 53891U 22119F   23265.81253763  .00007449  00000-0  48534-3 0  9995,2 53891  53.2183  39.4086 0001207  93.0160 267.0970 15.08859394 55989,6917.821,95.436,540.521,538.851,0.0
53891.0,STARLINK-5041,PAYLOAD,2023-09-23 01:51:36,15.08841788,0.0001574,53.2174,38.2161,81.405,278.712,5.8078e-06,-1.96e-06,0.0,0 STARLINK-5041,1 53891U 22119F   23266.07750240 -.00000196  00000-0  58078-5 0  9995,2 53891  53.2174  38.2161 0001574  81.4050 278.7120 15.08841788 55609,6917.875,95.437,540.829,538.651,0.0
53891.0,STARLINK-5041,PAYLOAD,2023-09-23 12:59:17,15.08846788,0.0001228,53.2165,36.1358,90.5522,269.5611,0.00010641,1.406e-05,0.0,0 STARLINK-5041,1 53891U 22119F   23266.54117872  .00001406  00000-0  10641-3 0  9991,2 53891  53.2165  36.1358 0001228  90.5522 269.5611 15.08846788 56097,6917.86,95.437,540.574,538.875,0.0
